STARLINK-31460          
1 59008U 24036L   26033.30443359 -.00001791  00000+0 -48406-4 0  9997
2 59008  53.1587 242.6301 0001015 111.4135 248.6974 15.30171767109901
STARLINK-31488          
1 59009U 24036M   26033.27064133  .00000308  00000+0  22528-4 0  9991
2 59009  53.1587 242.4168 0001197  89.7443 270.3695 15.30196039109902
STARLINK-31528          
1 59010U 24036N   26028.94814859  .00025661  00000+0  86343-3 0  9992
2 59010  53.1572 263.0777 0001930 101.5154 258.6063 15.30651111109231
STARLINK-31491          
1 59011U 24036P   26032.99999857  .00002053  00000+0  81401-4 0  9996
2 59011  53.1598 244.2803 0001217  91.0722 269.0419 15.30201456109855
STARLINK-31465          
1 59012U 24036Q   26032.99471802  .00001254  00000+0  54457-4 0  9995
2 59012  53.1593 244.2458 0001178  94.2610 265.8526 15.30196638109852
STARLINK-31389          
1 59013U 24036R   26029.92711027  .00114465  00000+0  36609-2 0  9997
2 59013  53.1590 258.5203 0007838 197.7729 162.2999 15.31529584109399
STARLINK-31454          
1 59014U 24036S   26032.99154997 -.00001897  00000+0 -51926-4 0  9993
2 59014  53.1574 244.2255 0001058  77.4743 282.6376 15.30206016109857
STARLINK-31521          
1 59015U 24036T   26032.99049717  .00000402  00000+0  25695-4 0  9990
2 59015  53.1589 244.2196 0001190  85.3493 274.7644 15.30198303109854
STARLINK-31526          
1 59016U 24036U   26032.92512629  .00001443  00000+0  60835-4 0  9992
2 59016  53.1598 218.9084 0000990  79.2267 280.8845 15.30194453110201
STARLINK-31406          
1 59017U 24036V   26033.25531701  .00002576  00000+0  99058-4 0  9999
2 59017  53.1571 229.5451 0001413  91.2703 268.8460 15.30200271110080
STARLINK-31527          
1 59018U 24036W   26033.30757670 -.00002196  00000+0 -62032-4 0  9993
2 59018  53.1572 242.6516 0001135  75.5149 284.5978 15.30206775109903
STARLINK-31436          
1 59019U 24036X   26033.00106728  .00005835  00000+0  20899-3 0  9998
2 59019  53.1578 244.2841 0001156 106.0045 254.1083 15.30199352109853
STARLINK-30996          
1 59023U 24038A   26032.89623491  .00000411  00000+0  24442-4 0  9996
2 59023  42.9953 229.1937 0000889 242.5578 117.5183 15.27582446110657
STARLINK-31006          
1 59024U 24038B   26032.68086125  .00001909  00000+0  78839-4 0  9993
2 59024  42.9974 179.9641 0001248 267.4729  92.5980 15.27589666109835
STARLINK-31178          
1 59025U 24038C   26033.23344803  .00000958  00000+0  44338-4 0  9996
2 59025  42.9991 227.4248 0001199 274.8237  85.2478 15.27579226109223
STARLINK-30863          
1 59027U 24038E   26032.92836998  .00005326  00000+0  20292-3 0  9990
2 59027  43.0040 229.4184 0001183 287.3053  72.7669 15.27580199109179
