[{"OBJECT_NAME":"STARLINK-31460","OBJECT_ID":"2024-036L","EPOCH":"2026-02-02T07:18:23.062176","MEAN_MOTION":15.30171767,"ECCENTRICITY":0.00010155,"INCLINATION":53.1587,"RA_OF_ASC_NODE":242.6301,"ARG_OF_PERICENTER":111.4135,"MEAN_ANOMALY":248.6974,"EPHEMERIS_TYPE":0,"CLASSIFICATION_TYPE":"U","NORAD_CAT_ID":59008,"ELEMENT_SET_NO":999,"REV_AT_EPOCH":10990,"BSTAR":-4.840558e-5,"MEAN_MOTION_DOT":-1.791e-5,"MEAN_MOTION_DDOT":0},{"OBJECT_NAME":"STARLINK-31488","OBJECT_ID":"2024-036M","EPOCH":"2026-02-02T06:29:43.410912","MEAN_MOTION":15.30196039,"ECCENTRICITY":0.00011973,"INCLINATION":53.1587,"RA_OF_ASC_NODE":242.4168,"ARG_OF_PERICENTER":89.7443,"MEAN_ANOMALY":270.3695,"EPHEMERIS_TYPE":0,"CLASSIFICATION_TYPE":"U","NORAD_CAT_ID":59009,"ELEMENT_SET_NO":999,"REV_AT_EPOCH":10990,"BSTAR":2.2528287e-5,"MEAN_MOTION_DOT":3.08e-6,"MEAN_MOTION_DDOT":0},{"OBJECT_NAME":"STARLINK-31528","OBJECT_ID":"2024-036N","EPOCH":"2026-01-28T22:45:20.038176","MEAN_MOTION":15.30651111,"ECCENTRICITY":0.00019302,"INCLINATION":53.1572,"RA_OF_ASC_NODE":263.0777,"ARG_OF_PERICENTER":101.5154,"MEAN_ANOMALY":258.6063,"EPHEMERIS_TYPE":0,"CLASSIFICATION_TYPE":"U","NORAD_CAT_ID":59010,"ELEMENT_SET_NO":999,"REV_AT_EPOCH":10923,"BSTAR":0.00086342856,"MEAN_MOTION_DOT":0.00025661,"MEAN_MOTION_DDOT":0},{"OBJECT_NAME":"STARLINK-31491","OBJECT_ID":"2024-036P","EPOCH":"2026-02-01T23:59:59.876448","MEAN_MOTION":15.30201456,"ECCENTRICITY":0.00012177,"INCLINATION":53.1598,"RA_OF_ASC_NODE":244.2803,"ARG_OF_PERICENTER":91.0722,"MEAN_ANOMALY":269.0419,"EPHEMERIS_TYPE":0,"CLASSIFICATION_TYPE":"U","NORAD_CAT_ID":59011,"ELEMENT_SET_NO":999,"REV_AT_EPOCH":10985,"BSTAR":8.1401151e-5,"MEAN_MOTION_DOT":2.053e-5,"MEAN_MOTION_DDOT":0},{"OBJECT_NAME":"STARLINK-31465","OBJECT_ID":"2024-036Q","EPOCH":"2026-02-01T23:52:23.636928","MEAN_MOTION":15.30196638,"ECCENTRICITY":0.00011782,"INCLINATION":53.1593,"RA_OF_ASC_NODE":244.2458,"ARG_OF_PERICENTER":94.261,"MEAN_ANOMALY":265.8526,"EPHEMERIS_TYPE":0,"CLASSIFICATION_TYPE":"U","NORAD_CAT_ID":59012,"ELEMENT_SET_NO":999,"REV_AT_EPOCH":10985,"BSTAR":5.4457403e-5,"MEAN_MOTION_DOT":1.254e-5,"MEAN_MOTION_DDOT":0},{"OBJECT_NAME":"STARLINK-31389","OBJECT_ID":"2024-036R","EPOCH":"2026-01-29T22:15:02.327328","MEAN_MOTION":15.31529584,"ECCENTRICITY":0.00078385,"INCLINATION":53.159,"RA_OF_ASC_NODE":258.5203,"ARG_OF_PERICENTER":197.7729,"MEAN_ANOMALY":162.2999,"EPHEMERIS_TYPE":0,"CLASSIFICATION_TYPE":"U","NORAD_CAT_ID":59013,"ELEMENT_SET_NO":999,"REV_AT_EPOCH":10939,"BSTAR":0.0036609082,"MEAN_MOTION_DOT":0.00114465,"MEAN_MOTION_DDOT":0},{"OBJECT_NAME":"STARLINK-31454","OBJECT_ID":"2024-036S","EPOCH":"2026-02-01T23:47:49.917408","MEAN_MOTION":15.30206016,"ECCENTRICITY":0.00010588,"INCLINATION":53.1574,"RA_OF_ASC_NODE":244.2255,"ARG_OF_PERICENTER":77.4743,"MEAN_ANOMALY":282.6376,"EPHEMERIS_TYPE":0,"CLASSIFICATION_TYPE":"U","NORAD_CAT_ID":59014,"ELEMENT_SET_NO":999,"REV_AT_EPOCH":10985,"BSTAR":-5.1925935e-5,"MEAN_MOTION_DOT":-1.897e-5,"MEAN_MOTION_DDOT":0},{"OBJECT_NAME":"STARLINK-31521","OBJECT_ID":"2024-036T","EPOCH":"2026-02-01T23:46:18.955488","MEAN_MOTION":15.30198303,"ECCENTRICITY":0.00011903,"INCLINATION":53.1589,"RA_OF_ASC_NODE":244.2196,"ARG_OF_PERICENTER":85.3493,"MEAN_ANOMALY":274.7644,"EPHEMERIS_TYPE":0,"CLASSIFICATION_TYPE":"U","NORAD_CAT_ID":59015,"ELEMENT_SET_NO":999,"REV_AT_EPOCH":10985,"BSTAR":2.5694869e-5,"MEAN_MOTION_DOT":4.02e-6,"MEAN_MOTION_DDOT":0},{"OBJECT_NAME":"STARLINK-31526","OBJECT_ID":"2024-036U","EPOCH":"2026-02-01T22:12:10.911456","MEAN_MOTION":15.30194453,"ECCENTRICITY":9.901e-5,"INCLINATION":53.1598,"RA_OF_ASC_NODE":218.9084,"ARG_OF_PERICENTER":79.2267,"MEAN_ANOMALY":280.8845,"EPHEMERIS_TYPE":0,"CLASSIFICATION_TYPE":"U","NORAD_CAT_ID":59016,"ELEMENT_SET_NO":999,"REV_AT_EPOCH":11020,"BSTAR":6.0835325e-5,"MEAN_MOTION_DOT":1.443e-5,"MEAN_MOTION_DDOT":0},{"OBJECT_NAME":"STARLINK-31406","OBJECT_ID":"2024-036V","EPOCH":"2026-02-02T06:07:39.389664","MEAN_MOTION":15.30200271,"ECCENTRICITY":0.00014139,"INCLINATION":53.1571,"RA_OF_ASC_NODE":229.5451,"ARG_OF_PERICENTER":91.2703,"MEAN_ANOMALY":268.846,"EPHEMERIS_TYPE":0,"CLASSIFICATION_TYPE":"U","NORAD_CAT_ID":59017,"ELEMENT_SET_NO":999,"REV_AT_EPOCH":11008,"BSTAR":9.9058313e-5,"MEAN_MOTION_DOT":2.576e-5,"MEAN_MOTION_DDOT":0},{"OBJECT_NAME":"STARLINK-31527","OBJECT_ID":"2024-036W","EPOCH":"2026-02-02T07:22:54.626880","MEAN_MOTION":15.30206775,"ECCENTRICITY":0.0001135,"INCLINATION":53.1572,"RA_OF_ASC_NODE":242.6516,"ARG_OF_PERICENTER":75.5149,"MEAN_ANOMALY":284.5978,"EPHEMERIS_TYPE":0,"CLASSIFICATION_TYPE":"U","NORAD_CAT_ID":59018,"ELEMENT_SET_NO":999,"REV_AT_EPOCH":10990,"BSTAR":-6.2032366e-5,"MEAN_MOTION_DOT":-2.196e-5,"MEAN_MOTION_DDOT":0},{"OBJECT_NAME":"STARLINK-31436","OBJECT_ID":"2024-036X","EPOCH":"2026-02-02T00:01:32.212992","MEAN_MOTION":15.30199352,"ECCENTRICITY":0.00011562,"INCLINATION":53.1578,"RA_OF_ASC_NODE":244.2841,"ARG_OF_PERICENTER":106.0045,"MEAN_ANOMALY":254.1083,"EPHEMERIS_TYPE":0,"CLASSIFICATION_TYPE":"U","NORAD_CAT_ID":59019,"ELEMENT_SET_NO":999,"REV_AT_EPOCH":10985,"BSTAR":0.00020899208,"MEAN_MOTION_DOT":5.835e-5,"MEAN_MOTION_DDOT":0},{"OBJECT_NAME":"STARLINK-30996","OBJECT_ID":"2024-038A","EPOCH":"2026-02-01T21:30:34.696224","MEAN_MOTION":15.27582446,"ECCENTRICITY":8.893e-5,"INCLINATION":42.9953,"RA_OF_ASC_NODE":229.1937,"ARG_OF_PERICENTER":242.5578,"MEAN_ANOMALY":117.5183,"EPHEMERIS_TYPE":0,"CLASSIFICATION_TYPE":"U","NORAD_CAT_ID":59023,"ELEMENT_SET_NO":999,"REV_AT_EPOCH":11065,"BSTAR":2.4441965e-5,"MEAN_MOTION_DOT":4.11e-6,"MEAN_MOTION_DDOT":0},{"OBJECT_NAME":"STARLINK-31006","OBJECT_ID":"2024-038B","EPOCH":"2026-02-01T16:20:26.412000","MEAN_MOTION":15.27589666,"ECCENTRICITY":0.0001248,"INCLINATION":42.9974,"RA_OF_ASC_NODE":179.9641,"ARG_OF_PERICENTER":267.4729,"MEAN_ANOMALY":92.598,"EPHEMERIS_TYPE":0,"CLASSIFICATION_TYPE":"U","NORAD_CAT_ID":59024,"ELEMENT_SET_NO":999,"REV_AT_EPOCH":10983,"BSTAR":7.8838807e-5,"MEAN_MOTION_DOT":1.909e-5,"MEAN_MOTION_DDOT":0},{"OBJECT_NAME":"STARLINK-31178","OBJECT_ID":"2024-038C","EPOCH":"2026-02-02T05:36:09.909792","MEAN_MOTION":15.27579226,"ECCENTRICITY":0.00011999,"INCLINATION":42.9991,"RA_OF_ASC_NODE":227.4248,"ARG_OF_PERICENTER":274.8237,"MEAN_ANOMALY":85.2478,"EPHEMERIS_TYPE":0,"CLASSIFICATION_TYPE":"U","NORAD_CAT_ID":59025,"ELEMENT_SET_NO":999,"REV_AT_EPOCH":10922,"BSTAR":4.433801e-5,"MEAN_MOTION_DOT":9.58e-6,"MEAN_MOTION_DDOT":0},{"OBJECT_NAME":"STARLINK-30863","OBJECT_ID":"2024-038E","EPOCH":"2026-02-01T22:16:51.166272","MEAN_MOTION":15.27580199,"ECCENTRICITY":0.00011837,"INCLINATION":43.004,"RA_OF_ASC_NODE":229.4184,"ARG_OF_PERICENTER":287.3053,"MEAN_ANOMALY":72.7669,"EPHEMERIS_TYPE":0,"CLASSIFICATION_TYPE":"U","NORAD_CAT_ID":59027,"ELEMENT_SET_NO":999,"REV_AT_EPOCH":10917,"BSTAR":0.00020292291,"MEAN_MOTION_DOT":5.326e-5,"MEAN_MOTION_DDOT":0}]
